{"type":"FeatureCollection","crs":{"type":"name","properties":{"name":"EPSG:4326"}},"features":[{"type":"Feature","id":385,"geometry":{"type":"Polygon","coordinates":[[[92.84617566900005,24.034723703000054],[92.84540472500004,24.063235617000032],[92.85341216500007,24.07198674400007],[92.85655379600007,24.088112902000034],[92.85334217600007,24.09457203000005],[92.87560864600005,24.12965017500005],[92.87148463200003,24.139554518000068],[92.88272912800005,24.15367139700004],[92.88544955400005,24.165872018000073],[92.88211914000004,24.16872212900006],[92.89120467900005,24.172011007000037],[92.89174843100005,24.199669150000034],[92.89732559200007,24.205229582000072],[92.89497357900007,24.210790178000025],[92.89940267800006,24.22220883800003],[92.89850061300007,24.23178993700003],[92.88998917400005,24.242652699000075],[92.88053851100005,24.233037848000038],[92.87228271700008,24.24130708000007],[92.86022678900008,24.241902775000028],[92.86007662300005,24.24908675000006],[92.86421815800009,24.250901319000036],[92.85878720600004,24.258440807000056],[92.86418620300003,24.261994902000026],[92.86109938200008,24.269802414000026],[92.86665453500007,24.276725421000037],[92.87324926100007,24.277006133000043],[92.87265096200008,24.286662243000023],[92.86153157400008,24.308191685000054],[92.85436275000006,24.308530468000072],[92.86602588300008,24.317422416000056],[92.86103162800003,24.327962120000052],[92.87101764800008,24.33045030900007],[92.89042875600006,24.356077189000075],[92.88356753200009,24.36348776600005],[92.89167838700007,24.37788696100006],[92.88396083800006,24.38102470900003],[92.88895927700008,24.391188830000033],[92.89398583500008,24.38966864300005],[92.88358270200007,24.40251594600005],[92.87324087800005,24.394963996000058],[92.86083887900008,24.398601777000067],[92.84289651500006,24.377734649000047],[92.82977346200005,24.37370930700007],[92.82607628200003,24.37647978700005],[92.82304132100006,24.38657244600006],[92.82984331600005,24.400392442000054],[92.82006208900003,24.40381546800006],[92.81884184000006,24.410152897000046],[92.81234488700005,24.409387494000043],[92.80674479800007,24.41895050900007],[92.79926578400006,24.419231333000027],[92.80117271600005,24.42975476400005],[92.76289705900007,24.521233949000077],[92.75205149100003,24.50633362600007],[92.75071838800005,24.492188030000023],[92.71279733500006,24.411308637000047],[92.70351243400006,24.37554947600006],[92.69272398100009,24.36857040700005],[92.68473480700004,24.346639423000056],[92.67705481100006,24.35025366800005],[92.66126692200004,24.348258446000045],[92.64913199700004,24.32870546500004],[92.63862365700004,24.328526236000073],[92.64025502800007,24.333712904000038],[92.63619520000003,24.331447153000056],[92.63528929700004,24.336855202000038],[92.62233197600005,24.331444744000066],[92.61405557000006,24.25605498500005],[92.60672465700009,24.248768726000037],[92.57202841400004,24.251984508000078],[92.55055412900003,24.247103910000078],[92.54701550500005,24.220259971000075],[92.53100732100006,24.18521000100003],[92.53287177100003,24.171583444000078],[92.52613267000004,24.165095824000048],[92.54213610000005,24.141565110000045],[92.53462168200008,24.126091501000076],[92.54102933100006,24.122998453000037],[92.53520418200009,24.110520419000068],[92.53762160800005,24.07991061000007],[92.53355409500006,24.04796463100007],[92.53615849800008,24.03379627700008],[92.54705363400006,24.04086723900008],[92.54725555300007,24.055525885000066],[92.55222871300003,24.061379196000075],[92.55525676800005,24.053644934000033],[92.56111264300006,24.05307498700006],[92.55638757000008,24.040787304000048],[92.56468443800009,24.03896850700005],[92.57369714000004,24.066768509000042],[92.57110505100007,24.074904771000035],[92.58038545600004,24.074938048000035],[92.58387590500007,24.063015904000054],[92.59820994100005,24.050567450000074],[92.61135457000006,24.04995264300004],[92.61924168600007,24.032147185000042],[92.62316063400004,24.031265868000048],[92.62429376300008,24.039661955000042],[92.63517714600005,24.033395850000034],[92.62659556200003,24.026641235000056],[92.61989971900005,24.008515028000033],[92.62957357100004,23.99768818600006],[92.62896994800008,23.98616875500005],[92.61706906200004,23.961849855000025],[92.62703920200005,23.945563298000025],[92.61984844500006,23.93588173300003],[92.64159518600007,23.930127430000027],[92.64320576500006,23.922877164000056],[92.65479386500004,23.920627598000067],[92.65985075300006,23.90904378600004],[92.64969418000004,23.89132298900006],[92.66180563700004,23.882090680000033],[92.66228152900004,23.86748078900007],[92.67931847000006,23.866814539000075],[92.69728340000006,23.855083797000077],[92.70806235900005,23.861460753000074],[92.72067350100008,23.855036208000058],[92.72279122100008,23.85950959400003],[92.74583207300003,23.863442014000043],[92.80219383300005,23.856987366000055],[92.80604856100007,23.885398130000056],[92.81028400100007,23.885183979000033],[92.81033159000003,23.89386901100005],[92.81799345400003,23.895867758000065],[92.82172920900007,23.912286039000037],[92.82001599600005,23.916307328000073],[92.81535225300007,23.91388027800008],[92.81663716200006,23.918781968000076],[92.81109301800007,23.91623594500004],[92.80642927500008,23.919638573000043],[92.81875488200006,23.934938507000027],[92.81437667400007,23.939102564000052],[92.82256202000008,23.95525910400005],[92.81568537700008,23.965348018000043],[92.81982563900004,23.968703059000063],[92.81989702300007,23.981290407000074],[92.82729714700008,23.98633486400007],[92.82168161900006,23.98671557800003],[92.82567911300004,23.99045133100003],[92.82120572700006,23.994163291000064],[92.82734473600004,24.000349890000052],[92.83081874900006,24.02407311500008],[92.83867097100006,24.01531669900004],[92.84076489600005,24.02711882500006],[92.84607109500007,24.027832663000027],[92.84150252900008,24.033995467000068],[92.84617566900005,24.034723703000054]]]},"properties":{"dtname":"Kolasib"}},{"type":"Feature","id":390,"geometry":{"type":"Polygon","coordinates":[[[92.92408490500009,24.396156683000072],[92.90924176000004,24.41301196200004],[92.90330402600006,24.391501908000066],[92.89286798900008,24.392778857000053],[92.89135116200003,24.400551664000034],[92.88823200600007,24.39850208400003],[92.89398583500008,24.38966864300005],[92.88895927700008,24.391188830000033],[92.88396083800006,24.38102470900003],[92.89167838700007,24.37788696100006],[92.88356753200009,24.36348776600005],[92.89042875600006,24.356077189000075],[92.87101764800008,24.33045030900007],[92.86103162800003,24.327962120000052],[92.86602588300008,24.317422416000056],[92.85436275000006,24.308530468000072],[92.86153157400008,24.308191685000054],[92.87265096200008,24.286662243000023],[92.87324926100007,24.277006133000043],[92.86665453500007,24.276725421000037],[92.86109938200008,24.269802414000026],[92.86418620300003,24.261994902000026],[92.85878720600004,24.258440807000056],[92.86421815800009,24.250901319000036],[92.86007662300005,24.24908675000006],[92.86022678900008,24.241902775000028],[92.87228271700008,24.24130708000007],[92.88053851100005,24.233037848000038],[92.88998917400005,24.242652699000075],[92.89850061300007,24.23178993700003],[92.89940267800006,24.22220883800003],[92.89497357900007,24.210790178000025],[92.89732559200007,24.205229582000072],[92.89174843100005,24.199669150000034],[92.89120467900005,24.172011007000037],[92.88211914000004,24.16872212900006],[92.88544955400005,24.165872018000073],[92.88272912800005,24.15367139700004],[92.87148463200003,24.139554518000068],[92.87560864600005,24.12965017500005],[92.85334217600007,24.09457203000005],[92.85655379600007,24.088112902000034],[92.85341216500007,24.07198674400007],[92.84540472500004,24.063235617000032],[92.84703953400003,24.036577512000065],[92.84150252900008,24.033995467000068],[92.84599971000006,24.02747574400007],[92.84076489600005,24.02711882500006],[92.83829025600005,24.01512634200003],[92.83081874900006,24.02407311500008],[92.82734473600004,24.000349890000052],[92.82120572700006,23.994163291000064],[92.82567911300004,23.99045133100003],[92.82168161900006,23.98671557800003],[92.82729714700008,23.98633486400007],[92.81989702300007,23.981290407000074],[92.81982563900004,23.968703059000063],[92.81568537700008,23.965348018000043],[92.82256202000008,23.95525910400005],[92.81437667400007,23.939102564000052],[92.81875488200006,23.934938507000027],[92.80642927500008,23.919638573000043],[92.81109301800007,23.91623594500004],[92.81663716200006,23.918781968000076],[92.81535225300007,23.91388027800008],[92.82001599600005,23.916307328000073],[92.82172920900007,23.912286039000037],[92.81799345400003,23.895867758000065],[92.81033159000003,23.89386901100005],[92.81028400100007,23.885183979000033],[92.80604856100007,23.885398130000056],[92.80219383300005,23.856987366000055],[92.74583207300003,23.863442014000043],[92.72279122100008,23.85950959400003],[92.72067350100008,23.855036208000058],[92.70830030400003,23.861460752000028],[92.69580813400006,23.85548830600004],[92.67931847000006,23.866814539000075],[92.66228152900004,23.86748078900007],[92.66180563700004,23.882090680000033],[92.64971797500004,23.89120401400004],[92.65256957900004,23.900601477000066],[92.63813920900003,23.891741977000038],[92.61061797800005,23.89466235900005],[92.61385404500004,23.880690164000043],[92.61099869200007,23.866013649000024],[92.61663325600006,23.858570695000026],[92.60208999000008,23.853107453000064],[92.60159489700004,23.815983825000046],[92.59572714700005,23.805847321000044],[92.60233728900005,23.80533335800004],[92.60150923700007,23.794597230000022],[92.60536396300006,23.793026785000052],[92.62296721600006,23.803348887000027],[92.62206983900006,23.797190844000056],[92.62679264400003,23.793598134000035],[92.63637460500007,23.79369569100004],[92.63722418100008,23.772720348000064],[92.62647389900008,23.763111887000036],[92.63251390200008,23.759143315000074],[92.63604311700004,23.739368918000025],[92.64890987400008,23.71481803200004],[92.66448033100005,23.708054557000025],[92.64459578100008,23.66869408200006],[92.63390699300004,23.659126239000045],[92.63399546800008,23.648177114000077],[92.64930986000007,23.63591942200003],[92.64921911800008,23.631036007000034],[92.67212308000006,23.623839960000055],[92.67172093300007,23.60986356500007],[92.66870745400007,23.60077257200004],[92.64864939400007,23.590604919000043],[92.65089298200007,23.57751980000006],[92.65726105600004,23.571074860000067],[92.65564683500008,23.560489235000034],[92.65361253800006,23.55496585000003],[92.64501888000007,23.553942814000038],[92.64061541300003,23.541942624000058],[92.63191438700005,23.534346782000057],[92.63722252700006,23.522474979000037],[92.65138254100003,23.51880858800007],[92.65614596600005,23.504358289000038],[92.65620604600008,23.422509537000053],[92.66647964700007,23.40234940700003],[92.66430986800003,23.391500479000058],[92.67529116900005,23.379594308000037],[92.67182051400005,23.36929144900006],[92.68151662100007,23.36787073100004],[92.68748983800003,23.355587357000047],[92.68858869300004,23.322991562000027],[92.69524486600005,23.327702894000026],[92.70185976700003,23.319350987000064],[92.71392363500007,23.322301517000028],[92.71946777800008,23.345977154000025],[92.71489921400007,23.348784918000035],[92.71903947500005,23.350212595000073],[92.73307829500004,23.34921322100007],[92.73150785100006,23.344549478000033],[92.74057359800008,23.33888636100005],[92.75337509700006,23.341456179000033],[92.76941266400007,23.33579306100006],[92.78116720200006,23.32292017800006],[92.80296306400004,23.311237024000036],[92.82216531300008,23.331819362000033],[92.84017783400003,23.33588823900004],[92.83294427200008,23.36272856000005],[92.82209393000005,23.370961495000074],[92.82801878800007,23.374863810000022],[92.82911333900006,23.38409611900005],[92.82080902200005,23.387165623000044],[92.82994615100006,23.41124576900006],[92.82659111100008,23.41890763300006],[92.83213525600007,23.424427983000044],[92.82963682100007,23.43135221400007],[92.83525234900009,23.435397297000065],[92.83579962600004,23.453933298000038],[92.83120726500005,23.46061958400003],[92.83827142000007,23.46734336000003],[92.79956353900008,23.479055068000036],[92.79655590000004,23.48805894800006],[92.78450631000004,23.47604742900006],[92.77707777400008,23.479569801000025],[92.77892661600004,23.490812754000046],[92.77405571800006,23.500006221000035],[92.77865601300005,23.51827160700003],[92.79745375400006,23.527370666000024],[92.79564536400005,23.53632695700003],[92.80158925700005,23.53856365100006],[92.79766790600007,23.550327706000076],[92.77431150900009,23.557846158000075],[92.77431349600005,23.583297517000062],[92.76905488800008,23.593434021000064],[92.77616947600006,23.599335084000074],[92.78387755200004,23.598723498000027],[92.79075953300008,23.582418851000057],[92.82125470500006,23.589842770000075],[92.83419897200008,23.575794433000056],[92.84299346000006,23.57406218500006],[92.86970053000005,23.553979534000064],[92.88268405800005,23.55769149400004],[92.88022416100006,23.56405475100007],[92.90029963600006,23.578687845000047],[92.90205091900003,23.58706354700007],[92.88855461600008,23.598142318000043],[92.89205718300008,23.606308627000033],[92.87791366600004,23.626638743000058],[92.88033119800008,23.635832980000032],[92.87713320300008,23.637165479000032],[92.88870690100003,23.64951964000005],[92.88130201800004,23.665033725000058],[92.88594672700003,23.690408298000023],[92.89112443300007,23.696880431000068],[92.88720308200004,23.70222946000007],[92.88874497300009,23.752217177000034],[92.88750765300006,23.75878449000004],[92.88240608900009,23.759260382000036],[92.88505205000007,23.77397496800006],[92.88166369600003,23.779514353000025],[92.88194627200005,23.78876395800006],[92.88912729800006,23.796986181000022],[92.87219896500005,23.805665841000064],[92.87229924500008,23.81074936300007],[92.88659504600008,23.828357374000063],[92.89063061100006,23.844328317000077],[92.88682347500009,23.854588553000042],[92.89598966900007,23.881412907000026],[92.90070732000004,23.871384300000045],[92.94402540700008,23.869756749000032],[92.95756454000008,23.874111162000077],[92.96484569100005,23.88508047700003],[92.98605892000006,23.89020243400006],[92.97902988000004,23.917069199000025],[92.99703526100006,23.93151014800003],[92.98307734300005,23.95766042400004],[92.99228823700008,23.961424731000022],[92.99063926900004,23.972384528000077],[92.99770151100006,23.98507657300007],[92.99200508000007,24.01284250300006],[92.99327095400008,24.087362461000055],[92.96688427500004,24.094354644000077],[92.97081835900008,24.09755607200003],[92.96760370800007,24.107849620000025],[92.97267330900007,24.112835119000067],[92.97098068900004,24.121070107000037],[92.98351506100005,24.125544948000027],[92.99039934000007,24.136720836000052],[92.98832526300004,24.149354232000064],[93.00596378400007,24.161762184000054],[93.00313402800003,24.17378508300004],[93.00767574300005,24.182117643000026],[92.99920354900007,24.196251824000058],[93.01491431000005,24.20003257600007],[93.02192914100004,24.217868666000072],[93.01596727500004,24.224822333000077],[93.02397944400008,24.233750230000055],[93.00927378900008,24.243442322000078],[93.00419537200008,24.25757972200006],[93.01218938700003,24.27096814600003],[93.00680931200009,24.282615029000056],[93.02310594000005,24.30215837800006],[93.04034222700005,24.342720335000024],[93.01773247400007,24.34994666600005],[93.02153589100004,24.373305302000063],[93.01841821200009,24.383473554000034],[93.02494457500006,24.391360907000035],[93.00869770000008,24.41177917600004],[92.99418490300008,24.399047307000046],[92.97355352600005,24.408401981000054],[92.96006473000006,24.392037343000027],[92.95179088400005,24.402970550000077],[92.93903737500005,24.400728471000036],[92.93389704500004,24.392383885000072],[92.92408490500009,24.396156683000072]]]},"properties":{"dtname":"Aizawl"}},{"type":"Feature","id":391,"geometry":{"type":"Polygon","coordinates":[[[92.63813920900003,23.891741977000038],[92.65620592000005,23.901963227000067],[92.65985075300006,23.90904378600004],[92.65479386500004,23.920627598000067],[92.64320576500006,23.922877164000056],[92.64159518600007,23.930127430000027],[92.61984844500006,23.93588173300003],[92.62703920200005,23.945563298000025],[92.61706906200004,23.961849855000025],[92.62896994800008,23.98616875500005],[92.62957357100004,23.99768818600006],[92.61989971900005,24.008515028000033],[92.62659556200003,24.026641235000056],[92.63517714600005,24.033395850000034],[92.62429376300008,24.039661955000042],[92.62316063400004,24.031265868000048],[92.61924168600007,24.032147185000042],[92.61135457000006,24.04995264300004],[92.59820994100005,24.050567450000074],[92.58387590500007,24.063015904000054],[92.58038545600004,24.074938048000035],[92.57110505100007,24.074904771000035],[92.57369714000004,24.066768509000042],[92.56468443800009,24.03896850700005],[92.55638757000008,24.040787304000048],[92.56111264300006,24.05307498700006],[92.55525676800005,24.053644934000033],[92.55084825600005,24.061252694000075],[92.54705363400006,24.04086723900008],[92.53615849800008,24.03379627700008],[92.53520418200009,24.110520419000068],[92.54102933100006,24.122998453000037],[92.53462168200008,24.126091501000076],[92.54213610000005,24.141565110000045],[92.53727944500008,24.153526585000066],[92.52625488700005,24.16215346900003],[92.53290950400003,24.176606220000053],[92.52918779800007,24.178434586000037],[92.52393781100005,24.171542470000077],[92.51566996400004,24.17910717600006],[92.50986434800006,24.17256629700006],[92.51431007400004,24.169567508000057],[92.50680613400004,24.16998631100006],[92.51130726700006,24.165511494000043],[92.50317187000007,24.167875294000055],[92.50608307100003,24.16423455200004],[92.50140623100003,24.16049070400004],[92.48382085700007,24.163270966000027],[92.47694449800008,24.14749830200003],[92.47885894100006,24.142427430000055],[92.46399331100008,24.13639674800004],[92.45662474600005,24.14446785100006],[92.45047706300005,24.14723828500007],[92.44901901800006,24.144069972000068],[92.44270332600007,24.154564118000053],[92.43632155900008,24.15313582300007],[92.43562593500008,24.17939572100005],[92.41879676900004,24.192799854000043],[92.42243290800008,24.25495851000005],[92.29228206700003,24.250492576000056],[92.29725356400007,24.231592126000066],[92.31031120800009,24.221375299000044],[92.31616779000007,24.211906679000037],[92.31460493500003,24.20648747200005],[92.32143888200005,24.203834375000042],[92.31901999200005,24.197960829000067],[92.32606200200007,24.196978682000065],[92.32181491800009,24.194688747000043],[92.32626318100006,24.19146592900006],[92.32253902600007,24.188113607000048],[92.33195844400007,24.179663659000028],[92.32376678600008,24.171336731000054],[92.33163181200007,24.15188764100003],[92.33060284900006,24.13979667600006],[92.32910419400008,24.139076069000055],[92.32606223500005,24.13975703500006],[92.32502749800005,24.139829863000045],[92.32445691100008,24.139536039000063],[92.32419925400006,24.115169734000062],[92.32781489800004,24.112047327000028],[92.32252155400005,24.104489643000022],[92.32756864500004,24.101590438000073],[92.32405865600003,24.079366694000043],[92.31915089100005,24.078288393000037],[92.32119032100007,24.07279018500003],[92.31646364600005,24.070140655000046],[92.31750836500004,24.055072903000053],[92.31205419300005,24.052219981000064],[92.31632718600008,24.045715980000068],[92.31201033300005,24.03251690700006],[92.31972281400004,24.02454215100005],[92.31385001400008,24.02132744000005],[92.32609686400008,23.99787950700005],[92.30786440400004,23.960662271000047],[92.30888616200008,23.93132642100005],[92.31619873600005,23.928168011000025],[92.31917273200008,23.915795956000068],[92.32508718500009,23.914192978000074],[92.31108024800005,23.880217978000076],[92.31493241600003,23.860602140000026],[92.30756609000008,23.857014621000076],[92.28501015900008,23.86725262400006],[92.26857621300007,23.842278702000044],[92.28223491800009,23.81473638600005],[92.25699652300005,23.812873729000046],[92.26720511600007,23.768701168000064],[92.26538822700007,23.725112311000032],[92.27984421100007,23.71900615000004],[92.27865898900006,23.710076986000047],[92.28959827200003,23.701711786000033],[92.29094457300005,23.690959410000062],[92.29165967500006,23.681886074000033],[92.27289142000006,23.64228076300003],[92.28229698500007,23.638176007000027],[92.27708443000006,23.632285615000058],[92.27882805000007,23.62511663600003],[92.28104787000007,23.630802302000063],[92.29582132300004,23.622318679000045],[92.28802010100009,23.618403670000077],[92.28734703200007,23.596264723000047],[92.28949173900008,23.598703036000074],[92.29664627700004,23.588567459000046],[92.30124724100006,23.593138862000046],[92.30826032400006,23.578437265000048],[92.30654239200004,23.564202958000067],[92.31308901700004,23.555813260000036],[92.30960720800005,23.55538612400005],[92.30637573500007,23.536125195000068],[92.31742628100005,23.527663951000022],[92.31304483700006,23.516137401000037],[92.31841041700005,23.516563905000055],[92.31763363800007,23.493997856000078],[92.32184839100006,23.491390508000052],[92.31589745200006,23.486486545000048],[92.32616936500006,23.47820629100005],[92.31739390400008,23.471259305000046],[92.33117285500003,23.465811243000076],[92.33083877200005,23.459825457000022],[92.32578253600008,23.45841604700007],[92.33333780800007,23.456018248000078],[92.32700863800005,23.44920842500005],[92.33376584200005,23.428788567000026],[92.33521470300008,23.43360001800005],[92.34610973800005,23.433703362000074],[92.34738090300004,23.41341264500005],[92.35686348300004,23.410693323000032],[92.35542754400007,23.401474636000046],[92.35238436200007,23.405243108000036],[92.35295686600006,23.392605570000057],[92.35815451300004,23.389923242000066],[92.35185277600004,23.38142768800003],[92.36437420600004,23.379874663000066],[92.35626728000005,23.371222801000044],[92.36256206600007,23.36669752000006],[92.36973988000005,23.373983457000065],[92.36872010200005,23.367289535000054],[92.37780185100007,23.36229224400006],[92.37539724600003,23.357294660000036],[92.37949427900008,23.351907237000034],[92.36392432700006,23.32322275200005],[92.36758038700003,23.317641730000048],[92.36701502900007,23.32349019800006],[92.37097222900007,23.31864570500005],[92.37579305400004,23.320422482000026],[92.37555228600007,23.313592456000038],[92.38553047900007,23.30654128900005],[92.38085608700004,23.28567440300003],[92.38790193400007,23.281853676000026],[92.39341895200005,23.266362257000026],[92.42304867500008,23.264347779000047],[92.43773138300008,23.280045019000056],[92.43341611800008,23.284929867000074],[92.45066091500007,23.287108045000025],[92.46274873600004,23.31903869200005],[92.46902510500007,23.318016361000048],[92.47198706800003,23.322263331000045],[92.46743575300007,23.342548687000033],[92.45947468300005,23.349826953000047],[92.46220337700004,23.36296372100003],[92.45681071900003,23.36582709100003],[92.45706324300005,23.380260417000045],[92.46367021000003,23.38938210400005],[92.47500783800007,23.390449774000047],[92.48769584000007,23.38204212200003],[92.49399638300008,23.39059277800004],[92.50845586600008,23.379337278000037],[92.54043983900004,23.379944054000077],[92.55491237000007,23.370077250000065],[92.58555037400004,23.384766857000045],[92.58489921600005,23.40168314300007],[92.58892475600004,23.405281842000022],[92.61841960900006,23.387078142000064],[92.63402739600008,23.391733355000042],[92.64395261600004,23.382470563000027],[92.66954336200007,23.38345077200006],[92.65494084900007,23.43226668400007],[92.65440203000009,23.489958638000076],[92.65788531400005,23.49798714900004],[92.65138254100003,23.51880858800007],[92.63722252700006,23.522474979000037],[92.63191438700005,23.534346782000057],[92.64061541300003,23.541942624000058],[92.64501888000007,23.553942814000038],[92.65361253800006,23.55496585000003],[92.65564683500008,23.560489235000034],[92.65726105600004,23.571074860000067],[92.65089298200007,23.57751980000006],[92.64864939400007,23.590604919000043],[92.66870745400007,23.60077257200004],[92.67172093300007,23.60986356500007],[92.67212308000006,23.623839960000055],[92.64921911800008,23.631036007000034],[92.64930986000007,23.63591942200003],[92.63399546800008,23.648177114000077],[92.63390699300004,23.659126239000045],[92.64459578100008,23.66869408200006],[92.66448033100005,23.708054557000025],[92.64890987400008,23.71481803200004],[92.63604311700004,23.739368918000025],[92.63251390200008,23.759143315000074],[92.62647389900008,23.763111887000036],[92.63722418100008,23.772720348000064],[92.63637460500007,23.79369569100004],[92.62679264400003,23.793598134000035],[92.62206983900006,23.797190844000056],[92.62296721600006,23.803348887000027],[92.60536396300006,23.793026785000052],[92.60150923700007,23.794597230000022],[92.60233728900005,23.80533335800004],[92.59569859300007,23.80594725800006],[92.60159489700004,23.815983825000046],[92.60208999000008,23.853107453000064],[92.61663325600006,23.858570695000026],[92.61099869200007,23.866013649000024],[92.61385404500004,23.880690164000043],[92.61054183500005,23.89458621600005],[92.63813920900003,23.891741977000038]]]},"properties":{"dtname":"Mamit"}},{"type":"Feature","id":403,"geometry":{"type":"Polygon","coordinates":[[[93.38108574500006,23.93462672100003],[93.36975691000004,23.929838628000027],[93.36822487700005,23.93338679900006],[93.35981832400006,23.932592673000045],[93.36472953200007,23.92752918000008],[93.36000094700006,23.918670616000043],[93.36285630100008,23.896817646000045],[93.35510877600007,23.88684294600006],[93.36833857900007,23.864875763000043],[93.35615122300004,23.857423227000027],[93.35884941600006,23.853601956000034],[93.35252451300005,23.853184138000074],[93.36181736600008,23.851095047000058],[93.35235162300006,23.84688804900003],[93.35857567400006,23.843588726000064],[93.35531192900004,23.83933673100006],[93.32335039500003,23.832198962000064],[93.30991120000004,23.843353875000048],[93.29382604300008,23.840574665000076],[93.28556455400008,23.845961764000037],[93.27726499500005,23.842573412000036],[93.26625163000006,23.870506573000057],[93.25940104900008,23.869252565000068],[93.25438610800006,23.83169280000004],[93.24490633500005,23.814332252000042],[93.24932261500004,23.797942525000053],[93.24635304800006,23.786654361000046],[93.23291385200008,23.777498195000078],[93.22556607700005,23.76415417800007],[93.23664484700004,23.751209911000046],[93.25836456700006,23.744890062000024],[93.24997841700008,23.739072160000035],[93.25693658000006,23.731197529000042],[93.25469159800008,23.725579769000035],[93.24504032800007,23.722335025000064],[93.23813235200004,23.710963435000053],[93.23977963900006,23.702284184000064],[93.25259829000004,23.70014454300008],[93.24497211800008,23.687985498000046],[93.24099591700008,23.63225307700003],[93.25586648300003,23.60931862700005],[93.27050035500008,23.599651152000035],[93.27251942500004,23.59116295000007],[93.25961745900008,23.574411545000032],[93.28070477100005,23.544927381000036],[93.27873775000006,23.532152318000044],[93.27315394800007,23.528704744000038],[93.27150418800005,23.49657673300004],[93.25629678900003,23.48439389400005],[93.25362055600004,23.47439619100004],[93.25955731100004,23.471005458000036],[93.26224610200006,23.458810722000067],[93.26054478800006,23.44155963000003],[93.27525278900004,23.41734003600004],[93.27060808100003,23.406756193000035],[93.26668673000006,23.406737157000066],[93.27133143700007,23.398056884000027],[93.26337452000007,23.388577111000075],[93.24706514100006,23.389199592000068],[93.24629181700004,23.384393080000052],[93.23429933300008,23.388616625000054],[93.22942143900008,23.383369912000035],[93.22632813800004,23.38570178300006],[93.22680403200008,23.377314184000056],[93.21602507300008,23.372995462000063],[93.21844022600004,23.369366785000068],[93.21434755400008,23.364417506000052],[93.22203321200004,23.35632733800003],[93.21469257500007,23.348308556000063],[93.20995744800007,23.34943879900004],[93.21105200000005,23.329724965000025],[93.20058237200004,23.321135110000057],[93.20492488700006,23.302694288000055],[93.19262307500009,23.287418149000075],[93.19283418400005,23.28134011700007],[93.19795002500007,23.279698289000066],[93.17770081100008,23.269502299000067],[93.18365358800008,23.256556321000062],[93.15895365400007,23.21825235600005],[93.16596189500007,23.209645241000032],[93.15928036900004,23.203648999000052],[93.16104210900005,23.192761504000032],[93.15552175900007,23.19456989400004],[93.14450485500004,23.188906778000046],[93.14774092200008,23.180197951000025],[93.16016170800003,23.176676348000058],[93.16177974100003,23.16306583100004],[93.17284423600006,23.141531710000038],[93.16570585300008,23.129467843000043],[93.16277911600008,23.099891144000026],[93.17531887500007,23.081854829000065],[93.17036959600006,23.07754800500004],[93.17715106000009,23.070457212000065],[93.17672275700005,23.058964415000048],[93.18574061600003,23.058890424000026],[93.18934694500007,23.05175715100006],[93.20132707900007,23.054652307000026],[93.20950235700008,23.04834080300003],[93.21696812700009,23.034358948000033],[93.21479755200005,23.026921682000022],[93.22921296200008,23.019891768000036],[93.22877069500004,23.01155790000007],[93.24133288600007,23.006723583000053],[93.26996300100006,23.01129648700004],[93.27532824600007,23.004203458000063],[93.28318045000003,23.008682385000043],[93.29300792800007,23.006536295000046],[93.30527495200005,23.020729345000063],[93.31315319400005,23.019112740000025],[93.32005204200004,23.03709714000007],[93.32743093500005,23.039851863000024],[93.32680998100005,23.047623215000044],[93.33342595900007,23.04957547600003],[93.33410434500007,23.05948088300005],[93.34299261200005,23.058775964000063],[93.33995705100006,23.067584513000043],[93.35139146100005,23.070508951000022],[93.33853699500008,23.07417083000007],[93.34413504300005,23.092593626000053],[93.34980863200008,23.091698852000036],[93.35344980800005,23.096747909000044],[93.35765505500007,23.109309103000044],[93.35532389200006,23.116608081000038],[93.36255118000008,23.115423601000032],[93.36556505100003,23.121766501000025],[93.37686613800008,23.126842658000044],[93.37658958700007,23.13269953200006],[93.38530227800004,23.134666222000078],[93.38556078100004,23.144517844000063],[93.37776756400007,23.14085177100003],[93.36752973700004,23.144236669000065],[93.37213078200006,23.170308951000038],[93.36811752100004,23.175373612000044],[93.38041158100003,23.18694170400005],[93.37637044000007,23.19063448600008],[93.37978324100004,23.19970741700007],[93.37474764300003,23.204546164000078],[93.37937443800007,23.214981055000067],[93.38797556200007,23.216466747000027],[93.38019583700003,23.22518558300004],[93.37593880600008,23.247858197000028],[93.36888634300004,23.250066713000024],[93.37353766600006,23.26074027800007],[93.36531579800004,23.26870361500005],[93.36881684700006,23.276028965000023],[93.36209838800005,23.27993040100006],[93.36964104100008,23.28712716800004],[93.36463453600004,23.305938283000046],[93.37133045900003,23.309387538000067],[93.36327399700008,23.31290616600006],[93.37114383500005,23.31362336500007],[93.36640127600003,23.321462861000043],[93.37248727100007,23.329387428000075],[93.36200704600003,23.336659827000062],[93.35537106100008,23.35260581700004],[93.38378387800003,23.361951298000065],[93.38769315600007,23.359462565000058],[93.39112496000007,23.369746890000044],[93.38635857700007,23.37435994200007],[93.40143293900007,23.384218932000067],[93.38810190700008,23.420479343000068],[93.38765942100008,23.44554391400004],[93.38975762400008,23.45036660100004],[93.39456918000008,23.447946691000027],[93.39205229500004,23.457851426000047],[93.39910334500007,23.472020258000043],[93.39246915000007,23.47869686100006],[93.39482188100004,23.503758178000055],[93.40375532900003,23.516857842000036],[93.40872147800007,23.517449399000043],[93.41827734100008,23.54011689600003],[93.40882255700006,23.55709833800006],[93.41333750600006,23.560144125000022],[93.40972235000004,23.56432948400004],[93.41452217800008,23.571060928000065],[93.42168303000005,23.571141503000035],[93.42294749100006,23.585057191000033],[93.42799493500007,23.58821520300006],[93.41980738100006,23.612005778000025],[93.41924300600004,23.623344535000058],[93.42409833400006,23.62936727600004],[93.41683557100004,23.63746573700007],[93.41588974100006,23.64701298400007],[93.43621583100008,23.684291273000042],[93.42530694100003,23.689126971000064],[93.41929271800007,23.701663375000066],[93.40728393900008,23.707161917000064],[93.40614016500007,23.714903793000076],[93.41217797700006,23.717406651000033],[93.41087750400004,23.729315315000065],[93.40575333600003,23.733370446000038],[93.40380293800007,23.745087323000064],[93.39176069400008,23.75618526900007],[93.40379837900008,23.806412652000063],[93.39879523500008,23.81526685600005],[93.39027786900004,23.81772194900003],[93.39278857700003,23.82333879600003],[93.38868564100005,23.825496920000035],[93.38490322600006,23.848234835000028],[93.38879316300006,23.865285399000072],[93.38460556800004,23.875794105000068],[93.39515867600005,23.923936394000066],[93.39173939100004,23.923710736000032],[93.39363384400008,23.929096424000022],[93.38108574500006,23.93462672100003]]]},"properties":{"dtname":"Champhai"}},{"type":"Feature","id":426,"geometry":{"type":"Polygon","coordinates":[[[92.77985849700008,23.59972287200003],[92.76905488800008,23.593434021000064],[92.77431349600005,23.583297517000062],[92.77231474900003,23.562072725000064],[92.77764275400006,23.556180535000067],[92.79783922700005,23.550194456000042],[92.80158925700005,23.53856365100006],[92.79564536400005,23.53632695700003],[92.79745375400006,23.527370666000024],[92.77865601300005,23.51827160700003],[92.77405571800006,23.500006221000035],[92.77892661600004,23.490812754000046],[92.77702780500005,23.479769675000057],[92.78450631000004,23.47604742900006],[92.79655590000004,23.48805894800006],[92.79956353900008,23.479055068000036],[92.83796209000008,23.468223761000047],[92.83120726500005,23.46061958400003],[92.83579962600004,23.453933298000038],[92.83525234900009,23.435397297000065],[92.82963682100007,23.43135221400007],[92.83213525600007,23.424427983000044],[92.82659111100008,23.41890763300006],[92.82994615100006,23.41124576900006],[92.82080902200005,23.387165623000044],[92.82911333900006,23.38409611900005],[92.82801878800007,23.374863810000022],[92.82209393000005,23.370961495000074],[92.83294427200008,23.36272856000005],[92.84020162800005,23.336007213000073],[92.82216531300008,23.331819362000033],[92.80296306400004,23.311237024000036],[92.78116720200006,23.32292017800006],[92.76941266400007,23.33579306100006],[92.75337509700006,23.341456179000033],[92.74057359800008,23.33888636100005],[92.73150785100006,23.344549478000033],[92.73295932200006,23.349237016000075],[92.71489921400007,23.348784918000035],[92.71946777800008,23.345977154000025],[92.71216283400008,23.32108799300005],[92.70197874100006,23.31932719100007],[92.69524486600005,23.327702894000026],[92.69257987000003,23.322991561000038],[92.68620162400003,23.32879074600004],[92.68102346100005,23.327080851000062],[92.68872710600004,23.30802460600006],[92.68346988700006,23.281068085000072],[92.68761890500008,23.28010269600003],[92.69022189400005,23.261385818000065],[92.69155801800008,23.222820177000074],[92.70439321800006,23.20845345400005],[92.70018204700006,23.198563813000078],[92.70969570200003,23.191431168000065],[92.71817789500005,23.191330420000043],[92.72410344600007,23.181072888000074],[92.72520695500003,23.18697595900005],[92.75421790600006,23.20170757300008],[92.75862600600004,23.19614882600007],[92.80214634700008,23.200360473000046],[92.81366293900004,23.191413699000066],[92.84500044100008,23.184370495000053],[92.86094596300006,23.169597112000076],[92.86966403800005,23.175566222000043],[92.87513347200007,23.17019725700004],[92.88407841700007,23.17004683300007],[92.89430671800005,23.178891841000052],[92.91435633400005,23.182672539000066],[92.91868729200007,23.19082166900006],[92.93517231000004,23.18741153600007],[92.93450740700007,23.17214627000004],[92.95190513600005,23.167329293000023],[92.95689688400006,23.158260204000044],[92.95726450400008,23.116939854000066],[93.01861621500007,23.07968889700004],[93.03651505300007,23.081715115000065],[93.04129190600008,23.075041273000068],[93.03861243600005,23.050261111000054],[93.07742739200006,23.03669407800004],[93.08044729500006,23.029177068000024],[93.09278595700005,23.026272237000057],[93.12183608400005,23.006143574000077],[93.12784643700007,23.031041754000057],[93.12562361100004,23.040817624000056],[93.13492626100003,23.04820433900005],[93.13449059900006,23.059906882000064],[93.14005087400005,23.059328427000025],[93.14050914100005,23.053286308000054],[93.15123922800007,23.054043989000036],[93.15519961600006,23.043454189000045],[93.16056691000006,23.048167963000026],[93.16859474800003,23.046633539000027],[93.18030071700008,23.057528991000027],[93.17036959600006,23.07754800500004],[93.17531887500007,23.081854829000065],[93.16277911600008,23.099891144000026],[93.17148794300005,23.146504784000058],[93.16177974100003,23.16306583100004],[93.16016170800003,23.176676348000058],[93.14498074800008,23.18400508800005],[93.14474280100006,23.189644411000074],[93.15552175900007,23.19456989400004],[93.16042345000005,23.192190434000054],[93.16258875900007,23.197211096000046],[93.14543284600006,23.201732072000027],[93.13896071100004,23.214176653000038],[93.11922028900005,23.22884990400007],[93.07949798200008,23.238756485000067],[93.07947418800006,23.250249281000038],[93.06336523700008,23.265406447000032],[93.05786868100006,23.264882967000062],[93.05413292800006,23.241088357000024],[93.05130136900004,23.243848531000026],[93.05034958600004,23.238732691000052],[93.03816674600006,23.237400193000042],[93.03474032100007,23.245442770000068],[93.04311602400008,23.24884540000005],[93.03245603900007,23.253770883000072],[93.02764952800004,23.261480336000034],[93.03124251400004,23.265668188000063],[93.00999392800009,23.27542397900004],[93.00525880100008,23.304786526000044],[93.03181358400008,23.326582389000066],[93.03571590000007,23.347021959000074],[93.04915985500008,23.371006924000028],[93.03219429900008,23.39713340700007],[93.03467161900005,23.412672091000047],[93.02617694400004,23.43201710900007],[93.03342240300003,23.44365267200004],[93.02535603000007,23.453146722000042],[93.02888953000007,23.47288435100006],[93.02517488800004,23.493787110000028],[93.01239718300008,23.49906951300005],[93.01392607300005,23.509208176000072],[93.00966994200007,23.513795198000025],[92.98877651000004,23.51252707200007],[92.96384822400006,23.528178610000055],[92.94643648400006,23.55786420100003],[92.91024654400007,23.56035648900007],[92.89804466900006,23.570464440000023],[92.89785596700005,23.577927008000074],[92.88022416100006,23.56405475100007],[92.88268405800005,23.55769149400004],[92.86970053000005,23.553979534000064],[92.84299346000006,23.57406218500006],[92.83419897200008,23.575794433000056],[92.82125470500006,23.589842770000075],[92.79075953300008,23.582418851000057],[92.78588639700007,23.596847903000025],[92.77985849700008,23.59972287200003]]]},"properties":{"dtname":"Serchhip"}},{"type":"Feature","id":431,"geometry":{"type":"Polygon","coordinates":[[[92.71817789500005,23.191330420000043],[92.70018204700006,23.198563813000078],[92.70439321800006,23.20845345400005],[92.69373620400006,23.217264804000024],[92.68834922800005,23.24345426900004],[92.69022189400005,23.261385818000065],[92.68761890500008,23.28010269600003],[92.68346988700006,23.281068085000072],[92.68872710600004,23.30802460600006],[92.68102346100005,23.327080851000062],[92.68658957400004,23.329737785000077],[92.68439591200007,23.363810968000053],[92.67182051400005,23.36929144900006],[92.67529116900005,23.379594308000037],[92.66954336200007,23.38345077200006],[92.64395261600004,23.382470563000027],[92.63402739600008,23.391733355000042],[92.61841960900006,23.387078142000064],[92.58892475600004,23.405281842000022],[92.58489921600005,23.40168314300007],[92.58555037400004,23.384766857000045],[92.55491237000007,23.370077250000065],[92.54043983900004,23.379944054000077],[92.50845586600008,23.379337278000037],[92.49399638300008,23.39059277800004],[92.48769584000007,23.38204212200003],[92.47500783800007,23.390449774000047],[92.46367021000003,23.38938210400005],[92.45706324300005,23.380260417000045],[92.45681071900003,23.36582709100003],[92.46220337700004,23.36296372100003],[92.45947468300005,23.349826953000047],[92.46743575300007,23.342548687000033],[92.47198706800003,23.322263331000045],[92.46902510500007,23.318016361000048],[92.46274873600004,23.31903869200005],[92.45066091500007,23.287108045000025],[92.43341611800008,23.284929867000074],[92.43773138300008,23.280045019000056],[92.42304867500008,23.264347779000047],[92.38803461200007,23.266046542000026],[92.38897436800005,23.259583772000042],[92.39788917300007,23.255974224000056],[92.39505896900005,23.248702452000032],[92.40348382600007,23.240887900000075],[92.40045457300005,23.236434453000072],[92.34633338400005,23.236672636000037],[92.35417903500007,23.220059712000023],[92.35342136900005,23.186159184000076],[92.36131709600005,23.182002268000076],[92.35447946600004,23.17884850300004],[92.36426938500006,23.156994325000028],[92.35689251200006,23.13448829500004],[92.36757499700008,23.126884095000037],[92.35771702600005,23.103037864000044],[92.36961585500006,23.096546164000074],[92.37195062700005,23.087306270000056],[92.37965174200008,23.086482858000068],[92.39182826800004,23.057356304000052],[92.38196271300006,23.033687893000035],[92.38442412000006,23.028529297000034],[92.37952056900008,23.012104324000063],[92.38428957300005,23.009714881000036],[92.38393072300005,22.981805333000068],[92.37906386100008,22.981140826000058],[92.37991819000007,22.975628150000034],[92.37417019300005,22.971097473000043],[92.37674840500006,22.959283412000048],[92.37278553100003,22.958222308000074],[92.37737296400007,22.948198336000075],[92.37242317300007,22.940155494000066],[92.37540096100008,22.93696064900007],[92.37109776500006,22.936123617000078],[92.37620658400004,22.929055466000023],[92.39637157700008,22.929806522000035],[92.40092117700004,22.91213490100006],[92.40452821500008,22.91773904400003],[92.41365916800004,22.913389840000036],[92.41938150400006,22.91851617900005],[92.41993751400008,22.909300505000033],[92.43371333200008,22.88587209600007],[92.44548239700003,22.89656922200004],[92.44994323300006,22.893136811000034],[92.44844382900004,22.876212082000052],[92.46012601900009,22.870617743000025],[92.45478665200005,22.869390661000068],[92.45269350000007,22.862083831000064],[92.46117149000008,22.861301122000043],[92.46405011900004,22.854251754000074],[92.45657686100003,22.851440738000065],[92.46269506200008,22.841841415000033],[92.45283993900006,22.84245372500004],[92.46162214600008,22.830274940000038],[92.45449043400004,22.81919309600005],[92.45883833900007,22.818826466000075],[92.46118469900006,22.80782293900006],[92.46529514200006,22.80986841600003],[92.46510473700005,22.803030730000046],[92.47183671200008,22.79664550900003],[92.46926331700007,22.782456765000063],[92.47297166800007,22.782200731000046],[92.47347415800004,22.759884792000037],[92.47806262600005,22.750921223000034],[92.50787338500004,22.736975365000035],[92.50551347500004,22.744162887000073],[92.51445634700008,22.756434588000047],[92.52080990400003,22.761365227000056],[92.53691556500007,22.760099189000073],[92.55737118900004,22.74508501400004],[92.56711814200008,22.73152559600004],[92.57751252600008,22.738002682000058],[92.57770957700006,22.745310956000026],[92.58490312300006,22.74771742200005],[92.59874215100007,22.72115563400007],[92.59926364900008,22.69572746700004],[92.60865115500008,22.680260373000067],[92.63085501700004,22.66353384400003],[92.62902719700008,22.657521881000037],[92.64173594800008,22.64693471000004],[92.64591652700005,22.636234948000038],[92.64423122600004,22.617674283000042],[92.67184453700008,22.625364083000022],[92.68098055400009,22.62530878700005],[92.69406399000007,22.61737736300006],[92.69100550600007,22.607842638000022],[92.69527130600005,22.590690248000044],[92.70979821200007,22.581104045000075],[92.72041980900008,22.56466456000004],[92.75234538400008,22.542354284000055],[92.75966641500008,22.501603121000073],[92.76643689600007,22.498296107000044],[92.77267743900006,22.502514978000022],[92.77605787500005,22.498470035000025],[92.77471943100005,22.519110273000024],[92.77961244400007,22.539140774000032],[92.79516777300006,22.552686422000022],[92.80081672800009,22.56776884900006],[92.79331554200007,22.605572193000057],[92.80049243600007,22.60793233800007],[92.80004420200004,22.622138660000076],[92.80490646200008,22.62800647100005],[92.84181421500006,22.62143535100006],[92.88056577000003,22.582429606000062],[92.89649222300005,22.583186612000077],[92.90987901400007,22.545635468000057],[92.92561239000008,22.550817132000077],[92.94185969100005,22.564696119000075],[92.95196885500008,22.62823030000004],[92.93080803100008,22.664167977000034],[92.93383239200006,22.70750186300006],[92.91667641700008,22.728990887000066],[92.91669085300003,22.765080350000062],[92.92779025800007,22.77691444100003],[92.91558258600008,22.787840147000054],[92.90870261900005,22.812175549000074],[92.91065823100007,22.828265015000056],[92.89713044100006,22.82602258000003],[92.88718931200003,22.830003807000026],[92.88730512700005,22.835071347000053],[92.86805530600003,22.850614188000065],[92.87029976000008,22.858363015000066],[92.87838189500008,22.86315172700006],[92.86569872500007,22.875331806000077],[92.85518678800008,22.87045977300005],[92.85080460600005,22.87665572800006],[92.86016473200004,22.883513642000025],[92.86350101400006,22.894250647000035],[92.87082230300007,22.89741482000005],[92.86038979900007,22.91637337900005],[92.88872172400005,22.94686329500007],[92.88964846900006,22.955839484000023],[92.88391588800005,22.96533200300007],[92.89015155900006,22.989361183000028],[92.87729167400005,23.00831778400004],[92.84541120800009,23.01400598400005],[92.83713068400004,23.024856326000076],[92.84356046400006,23.033351287000073],[92.83939164900005,23.042393240000024],[92.84533078300007,23.066283028000043],[92.83678130600003,23.074879398000064],[92.83883716000008,23.07999999900005],[92.78001688500007,23.094124478000026],[92.77481706200007,23.110474314000044],[92.77790475600005,23.130564695000032],[92.76834884100003,23.13389593900007],[92.76562673700005,23.139835074000075],[92.77126130100004,23.146269137000047],[92.76217799600005,23.16531451000003],[92.76769834500004,23.17639328100006],[92.75707643100009,23.20011174800004],[92.73409718300007,23.192875014000037],[92.72446512500005,23.18632673700006],[92.72410344600007,23.181072888000074],[92.71817789500005,23.191330420000043]]]},"properties":{"dtname":"Lunglei"}},{"type":"Feature","id":497,"geometry":{"type":"Polygon","coordinates":[[[92.98692114200009,22.63394267500007],[92.97479541000007,22.629450252000026],[92.96200342700007,22.633352568000078],[92.95880543200008,22.62691850500005],[92.95196885500008,22.62823030000004],[92.94622073200009,22.576035087000037],[92.94185969100005,22.564696119000075],[92.93095699600008,22.555000928000027],[92.93789105600007,22.53046620300006],[92.93326987500006,22.482833920000076],[92.94296914700004,22.467867844000068],[92.93874268700006,22.45877291100004],[92.93974388600003,22.439403071000072],[92.94959805000008,22.401672077000057],[92.96360177400004,22.39363701800005],[92.95956702800004,22.378349073000038],[92.95371688200004,22.37314020100007],[92.93757191100008,22.379861102000064],[92.93567259400004,22.385079553000025],[92.94014357000003,22.389562471000033],[92.92896158700006,22.39557685500006],[92.88002677100008,22.357724542000028],[92.86247545000003,22.32458472600007],[92.84922177500005,22.323840086000075],[92.83875806300006,22.33203069500007],[92.82267423700006,22.33115190700005],[92.82146498400004,22.32601242800007],[92.82707746400007,22.301197614000046],[92.83706518500009,22.28818060800006],[92.83109346000003,22.27548841400005],[92.83160152200008,22.256069293000053],[92.84507884600004,22.135297818000026],[92.84204277100008,22.115619564000042],[92.84513920000006,22.081658958000048],[92.85107083900004,22.06536641200006],[92.85789010200006,22.067576235000047],[92.86269260900008,22.062660395000023],[92.86446605900005,22.024167310000053],[92.87966358100005,22.022328455000036],[92.87842042800008,22.01510377200003],[92.89126182100006,22.011464810000064],[92.90379826000003,21.941196286000036],[92.91196774300005,21.951789881000025],[92.91186901000003,21.966423298000052],[92.92135902900009,21.992874784000037],[92.92945206700006,21.996230620000063],[92.93502072600006,22.006081960000074],[92.93432492200009,22.010589474000028],[92.92853081700008,22.008724449000056],[92.92663699300005,22.01540300100004],[92.93979442700004,22.014079710000033],[92.95123519300006,22.03001828200007],[92.95992132800006,22.02615807500007],[92.96428362500006,22.011186160000022],[92.97797017600004,21.998245342000075],[92.98142270200003,21.980749373000037],[93.00075292700006,21.97838673700005],[93.00339402300006,21.982521887000075],[93.00441728100003,22.017066157000045],[92.99445457500008,22.031423121000046],[92.99746952700008,22.03613836200003],[92.99410298100008,22.042196039000032],[93.00179065000003,22.067619912000055],[93.00687928300005,22.071447515000045],[93.00533803200005,22.080548574000034],[93.01190642400007,22.088861721000058],[93.00453860300007,22.104735953000045],[93.04732351800004,22.098677708000025],[93.05917615200008,22.101228135000042],[93.05668555700004,22.12202491000005],[93.03910214400008,22.13918725800005],[93.04363567300004,22.143202372000076],[93.03664211100005,22.144838157000038],[93.04883370800007,22.169394607000072],[93.03775719900005,22.195408831000066],[93.04584470100008,22.202975594000065],[93.05717328000009,22.201705478000065],[93.06266720000008,22.20775306200005],[93.08849637100008,22.196820435000063],[93.11089999500007,22.20430841700005],[93.12364429300004,22.174011715000063],[93.15069134100008,22.17631481600006],[93.16121254400008,22.196513521000043],[93.14829046900007,22.211754100000064],[93.15189537900005,22.217282606000026],[93.14733554200006,22.229363419000038],[93.13943114700004,22.235462062000067],[93.14325856700003,22.238649613000064],[93.14173988100003,22.245657639000058],[93.16282534000004,22.25017020200005],[93.17711902400004,22.245998624000038],[93.19917356400003,22.255873907000023],[93.20204103400005,22.26413440600004],[93.19372770400008,22.28824006800005],[93.19923872000004,22.294076889000053],[93.18978947200009,22.30049588600008],[93.19543063100008,22.301645652000047],[93.19058475800006,22.309067219000042],[93.19573858800004,22.314404315000047],[93.18907637900008,22.32313788500005],[93.19667228700007,22.328123325000035],[93.18572883200005,22.339879796000048],[93.18808794200004,22.365249987000027],[93.18337549100005,22.373654222000027],[93.18983924400004,22.382609842000022],[93.18176905700005,22.394868943000063],[93.18743284400006,22.40317052300003],[93.18167398500003,22.417588227000067],[93.18496998700004,22.428274695000027],[93.16317233900008,22.45118455200003],[93.13887293600004,22.454220441000075],[93.13117338400008,22.46787374200005],[93.13485540500005,22.492102050000028],[93.12373873500007,22.508495321000055],[93.12835422800003,22.523643900000025],[93.10752406600005,22.525261912000076],[93.11229107700007,22.532976829000063],[93.10937831100006,22.540673924000032],[93.08973076600006,22.546306252000022],[93.08102193800005,22.554372624000052],[93.07395494000008,22.538953717000027],[93.07688167600008,22.535455909000063],[93.07333060300004,22.515813458000025],[93.06008295500004,22.490546167000048],[93.05342046300007,22.49140277300006],[93.04470110800008,22.481931883000073],[93.04264525500008,22.46225849900003],[93.02869685400003,22.47130996900006],[93.02244173500009,22.495458046000067],[93.02942783200007,22.50687945900006],[93.02249884300005,22.51719680100007],[93.02230848500005,22.539144950000036],[93.02978951100005,22.558580386000074],[93.02499251800003,22.562501738000037],[93.02630597900009,22.584164351000027],[92.97934493900004,22.606359963000045],[92.97856447500004,22.61681055500003],[92.98779678300008,22.626499720000027],[92.98692114200009,22.63394267500007]]]},"properties":{"dtname":"Saiha"}},{"type":"Feature","id":499,"geometry":{"type":"MultiPolygon","coordinates":[[[[92.52080990400003,22.761365227000056],[92.50551347500004,22.744162887000073],[92.51667025000006,22.721855762000075],[92.51384197200008,22.70896194000005],[92.52895127700003,22.66590093600007],[92.52365161000006,22.658257277000075],[92.52611372100006,22.63463948200007],[92.53220022200009,22.633092359000045],[92.52717376000004,22.621669929000063],[92.53455009200007,22.612021276000064],[92.53393829500004,22.608352249000063],[92.52952115200009,22.609684221000066],[92.52977796400006,22.604392163000057],[92.53879101600006,22.589597620000063],[92.53254257100008,22.58778645800004],[92.53830265400006,22.586164712000027],[92.53754742100006,22.574835644000075],[92.52718002200004,22.57282156800005],[92.52810608000004,22.565380315000027],[92.52201927900006,22.55969836500003],[92.53053184700008,22.55373318200003],[92.53219832200006,22.544384672000035],[92.53979401100008,22.540776983000057],[92.54314590500007,22.51387296100006],[92.54648388000004,22.51681641400006],[92.55117713400006,22.51306865400005],[92.54633974900008,22.510476765000078],[92.55074839300005,22.509728652000035],[92.54908461500008,22.50149147600007],[92.54354396800005,22.499290161000033],[92.55089840100004,22.49789822200006],[92.54369136200006,22.49068213700008],[92.55573310700004,22.429564088000063],[92.55138101500006,22.427718904000074],[92.55636165300007,22.424343192000038],[92.55132217400006,22.423083775000066],[92.55239588100005,22.40972130800003],[92.55724444500004,22.40923753100003],[92.55447110100005,22.405816663000053],[92.56006921900007,22.40161525900004],[92.55638965100007,22.398989375000042],[92.56002736300007,22.395903411000063],[92.55934005000006,22.381953039000052],[92.57189048600009,22.358164026000054],[92.57413024000004,22.332005037000044],[92.58087929800007,22.321836721000068],[92.57788108000005,22.311048877000076],[92.58369458800007,22.304080184000043],[92.58098086700005,22.268623234000074],[92.58989878600005,22.25521450800005],[92.59182594600009,22.24060841900007],[92.58778380200005,22.215615138000032],[92.59444943700004,22.203859567000052],[92.59556565800006,22.17541920900004],[92.60736673400004,22.17213034200006],[92.61047376600004,22.138241982000068],[92.60483340500008,22.123588711000025],[92.59373634400004,22.125911982000048],[92.58908242200005,22.131738179000024],[92.59263775600004,22.13857846800005],[92.57810050300009,22.14384206400007],[92.56213207500008,22.128175390000024],[92.57475905600006,22.115279004000058],[92.59184307800007,22.065365288000066],[92.60188272700003,22.060898381000072],[92.59881102500003,22.042109612000047],[92.59229926900008,22.037067619000027],[92.59933556700008,22.028759242000035],[92.59761022000004,22.00934539700006],[92.61242667900007,21.99130460600003],[92.61096961400006,21.983664717000067],[92.60301216300007,21.98060371200006],[92.60748591400005,21.97461205600007],[92.63463420500005,21.983543629000053],[92.65179312800007,22.016342317000067],[92.67004982500004,22.009635237000055],[92.67963540300008,22.011523012000055],[92.68538946300004,22.041736154000034],[92.68155487800004,22.103465070000027],[92.68776723000008,22.103839907000065],[92.69029978600008,22.072288736000075],[92.69506689100007,22.153761406000058],[92.71292308000005,22.147306796000066],[92.72701841000008,22.149098501000026],[92.73480476500004,22.134488963000024],[92.75326392500006,22.124778234000075],[92.76000252400007,22.12581203800005],[92.77369408500005,22.10737933400003],[92.79008729100008,22.105409432000044],[92.79781628200004,22.093943946000024],[92.80387742200008,22.098308581000026],[92.81002481000007,22.09626878200004],[92.81777713700006,22.086942401000044],[92.81834212800004,22.07521834100004],[92.83647961200006,22.072173992000046],[92.84085588000005,22.05949045500006],[92.84943815600008,22.062843367000028],[92.84204277100008,22.115619564000042],[92.84507884600004,22.135297818000026],[92.83845313400008,22.217295195000077],[92.83160152200008,22.256069293000053],[92.83109346000003,22.27548841400005],[92.83706518500009,22.28818060800006],[92.82707746400007,22.301197614000046],[92.82267423700006,22.33115190700005],[92.83875806300006,22.33203069500007],[92.84922177500005,22.323840086000075],[92.86247545000003,22.32458472600007],[92.88002677100008,22.357724542000028],[92.91969569700007,22.389440801000035],[92.92896158700006,22.39557685500006],[92.93633561400009,22.392857510000056],[92.94014357000003,22.389562471000033],[92.93567259400004,22.385079553000025],[92.93757191100008,22.379861102000064],[92.95371688200004,22.37314020100007],[92.95956702800004,22.378349073000038],[92.96360177400004,22.39363701800005],[92.94959805000008,22.401672077000057],[92.93974388600003,22.439403071000072],[92.93874268700006,22.45877291100004],[92.94296914700004,22.467867844000068],[92.93326987500006,22.482833920000076],[92.93789105600007,22.53046620300006],[92.93095699600008,22.555000928000027],[92.90987901400007,22.545635468000057],[92.89649222300005,22.583186612000077],[92.88056577000003,22.582429606000062],[92.84181421500006,22.62143535100006],[92.80490646200008,22.62800647100005],[92.80004420200004,22.622138660000076],[92.80049243600007,22.60793233800007],[92.79331554200007,22.605572193000057],[92.80081672800009,22.56776884900006],[92.79516777300006,22.552686422000022],[92.77706889600006,22.531565518000036],[92.77870924200005,22.499019901000054],[92.77267743900006,22.502514978000022],[92.76161508300004,22.498749885000052],[92.75370536800006,22.521084941000026],[92.75234538400008,22.542354284000055],[92.72041980900008,22.56466456000004],[92.70979821200007,22.581104045000075],[92.69527130600005,22.590690248000044],[92.69100550600007,22.607842638000022],[92.69406399000007,22.61737736300006],[92.68098055400009,22.62530878700005],[92.67184453700008,22.625364083000022],[92.64423122600004,22.617674283000042],[92.64591652700005,22.636234948000038],[92.64173594800008,22.64693471000004],[92.62902719700008,22.657521881000037],[92.63085501700004,22.66353384400003],[92.60865115500008,22.680260373000067],[92.59926364900008,22.69572746700004],[92.59874215100007,22.72115563400007],[92.58490312300006,22.74771742200005],[92.57770957700006,22.745310956000026],[92.57751252600008,22.738002682000058],[92.56711814200008,22.73152559600004],[92.54344618500005,22.757263075000026],[92.52080990400003,22.761365227000056]]],[[[93.07879882300006,22.797893405000025],[93.08321757300007,22.80475613300007],[93.07544829500006,22.807143220000057],[93.06003638700008,22.800916189000077],[93.06009107500006,22.79475186800005],[93.05258903100008,22.792592744000046],[93.02832091800008,22.796585408000055],[93.02553040700008,22.784292434000065],[93.01601634600007,22.78497468300003],[93.00993409200004,22.777261403000068],[93.00275030700004,22.754333891000044],[92.97695381300008,22.758254159000046],[92.95718489700005,22.781211674000076],[92.93875340500006,22.79051242500003],[92.92261151000008,22.790346072000034],[92.92229053500006,22.781374156000027],[92.92779025800007,22.77691444100003],[92.91669085300003,22.765080350000062],[92.91667641700008,22.728990887000066],[92.93383239200006,22.70750186300006],[92.93080803100008,22.664167977000034],[92.93859122800006,22.645912130000056],[92.95585490000008,22.626461650000067],[92.96188921200007,22.63333353200005],[92.97479541000007,22.629450252000026],[92.98745414200005,22.633771352000053],[92.98770160500004,22.626309363000075],[92.97856447500004,22.61681055500003],[92.97934493900004,22.606359963000045],[93.02630597900009,22.584164351000027],[93.02499251800003,22.562501738000037],[93.02978951100005,22.558580386000074],[93.02230848500005,22.539144950000036],[93.02249884300005,22.51719680100007],[93.02942783200007,22.50687945900006],[93.02246077100006,22.495096368000077],[93.02771175700008,22.487000134000027],[93.02751188200006,22.472794752000027],[93.04093204200007,22.461773090000065],[93.04470110800008,22.481931883000073],[93.05342046300007,22.49140277300006],[93.06008295500004,22.490546167000048],[93.07333060300004,22.515813458000025],[93.07688167600008,22.535455909000063],[93.07395494000008,22.538953717000027],[93.08102193800005,22.554372624000052],[93.08973076600006,22.546306252000022],[93.10937831100006,22.540673924000032],[93.11418983600004,22.561800008000034],[93.14014507400003,22.589326435000032],[93.13373739100007,22.61442727000008],[93.12761581400008,22.616892918000076],[93.12679913900007,22.625750019000066],[93.10805780900006,22.636349928000072],[93.10962547000008,22.655844803000036],[93.09544565900006,22.672286975000077],[93.09449144800004,22.680639032000045],[93.10200533700004,22.68309028500005],[93.09659822800006,22.68691979400006],[93.09874901400008,22.694270994000078],[93.09090133000007,22.704757932000064],[93.10709417600003,22.75317368700007],[93.09970763300004,22.76422758500007],[93.09585447200004,22.786530612000035],[93.07879882300006,22.797893405000025]]]]},"properties":{"dtname":"Lawngtlai"}},{"type":"Feature","id":734,"geometry":{"type":"Polygon","coordinates":[[[92.86427795400004,23.17457134800003],[92.86094596300006,23.169597112000076],[92.84500044100008,23.184370495000053],[92.81366293900004,23.191413699000066],[92.80214634700008,23.200360473000046],[92.75688151700007,23.196220209000046],[92.76769834500004,23.17639328100006],[92.76217799600005,23.16531451000003],[92.77126130100004,23.146269137000047],[92.76562673700005,23.139835074000075],[92.76834884100003,23.13389593900007],[92.77790475600005,23.130564695000032],[92.77481706200007,23.110474314000044],[92.78001688500007,23.094124478000026],[92.83883716000008,23.07999999900005],[92.83678130600003,23.074879398000064],[92.84533078300007,23.066283028000043],[92.83939164900005,23.042393240000024],[92.84356046400006,23.033351287000073],[92.83713068400004,23.024856326000076],[92.84541120800009,23.01400598400005],[92.87729167400005,23.00831778400004],[92.89015155900006,22.989361183000028],[92.88391588800005,22.96533200300007],[92.88964846900006,22.955839484000023],[92.88878792000008,22.947075123000047],[92.86029712500005,22.91617479000007],[92.87082230300007,22.89741482000005],[92.85093699700008,22.877979649000054],[92.85387610500004,22.870949625000037],[92.86569872500007,22.875331806000077],[92.87838189500008,22.86315172700006],[92.87029976000008,22.858363015000066],[92.86805530600003,22.850614188000065],[92.88730512700005,22.835071347000053],[92.88718931200003,22.830003807000026],[92.89713044100006,22.82602258000003],[92.91065823100007,22.828265015000056],[92.90870261900005,22.812175549000074],[92.91974490900003,22.78099573800006],[92.92492875100004,22.781036796000024],[92.92261151000008,22.790346072000034],[92.93875340500006,22.79051242500003],[92.95718489700005,22.781211674000076],[92.97695381300008,22.758254159000046],[93.00275030700004,22.754333891000044],[93.00993409200004,22.777261403000068],[93.01601634600007,22.78497468300003],[93.02553040700008,22.784292434000065],[93.02832091800008,22.796585408000055],[93.05258903100008,22.792592744000046],[93.06009107500006,22.79475186800005],[93.06003638700008,22.800916189000077],[93.07544829500006,22.807143220000057],[93.08321757300007,22.80475613300007],[93.07879882300006,22.797893405000025],[93.09585447200004,22.786530612000035],[93.09420983500007,22.806208296000023],[93.11004185600007,22.818180795000046],[93.10308954600004,22.824051501000042],[93.11284012700008,22.82981891700007],[93.10951583300005,22.833193510000058],[93.11767182300008,22.84250875200007],[93.11708128000004,22.863793195000028],[93.12603048600005,22.870988088000047],[93.13363129200008,22.89111321000007],[93.12942446300008,22.90420966100004],[93.13968314300007,22.914229086000034],[93.14969950900007,22.90838575500004],[93.16413851800007,22.910413937000044],[93.16279605900007,22.915835301000072],[93.15416122400006,22.917756335000036],[93.14770660900007,22.925696020000032],[93.14499891400004,22.946021401000053],[93.13773455500007,22.951018114000078],[93.14095985000006,22.958376260000023],[93.13535006200004,22.970802311000057],[93.14331661100005,22.97562591600007],[93.13857231400004,22.981938570000068],[93.14034548200004,22.989659652000057],[93.13206852100006,22.99095475000007],[93.12532628900004,23.002648211000064],[93.11974023900007,23.00237148700006],[93.12183608400005,23.006143574000077],[93.09278595700005,23.026272237000057],[93.08044729500006,23.029177068000024],[93.07742739200006,23.03669407800004],[93.03861243600005,23.050261111000054],[93.04129190600008,23.075041273000068],[93.03651505300007,23.081715115000065],[93.01861621500007,23.07968889700004],[92.95726450400008,23.116939854000066],[92.95689688400006,23.158260204000044],[92.95190513600005,23.167329293000023],[92.93450740700007,23.17214627000004],[92.93517231000004,23.18741153600007],[92.91868729200007,23.19082166900006],[92.91435633400005,23.182672539000066],[92.89430671800005,23.178891841000052],[92.88114408400008,23.16950872800004],[92.86427795400004,23.17457134800003]]]},"properties":{"dtname":"Hnahthial"}},{"type":"Feature","id":735,"geometry":{"type":"Polygon","coordinates":[[[92.99099709600006,24.115562280000063],[92.96817002000006,24.109182119000025],[92.97076839100004,24.09695644800007],[92.96652536600004,24.094992279000053],[92.99327095400008,24.087362461000055],[92.99200508000007,24.01284250300006],[92.99770151100006,23.98507657300007],[92.99063926900004,23.972384528000077],[92.99228823700008,23.961424731000022],[92.98307734300005,23.95766042400004],[92.99703526100006,23.93151014800003],[92.97902988000004,23.917069199000025],[92.98605892000006,23.89020243400006],[92.96484569100005,23.88508047700003],[92.95765971900005,23.87415875100004],[92.94402540700008,23.869756749000032],[92.92655778400007,23.873211726000022],[92.91325183800006,23.870070836000025],[92.89792810900008,23.873021368000025],[92.89598966900007,23.881412907000026],[92.89354307100007,23.878249913000047],[92.88678540200004,23.85436012400004],[92.89063061100006,23.844328317000077],[92.88659504600008,23.828357374000063],[92.87197563800004,23.809264579000057],[92.88912729800006,23.796986181000022],[92.88194627200005,23.78876395800006],[92.88166369600003,23.779514353000025],[92.88505205000007,23.77397496800006],[92.88240608900009,23.759260382000036],[92.88750765300006,23.75878449000004],[92.88874497300009,23.752217177000034],[92.88720308200004,23.70222946000007],[92.89112443300007,23.696880431000068],[92.88594672700003,23.690408298000023],[92.88130201800004,23.665033725000058],[92.88870690100003,23.64951964000005],[92.87711416700006,23.637051264000036],[92.88362437300003,23.614760473000047],[92.89205718300008,23.606308627000033],[92.88849750900005,23.598237496000024],[92.90205091900003,23.58706354700007],[92.89768940600004,23.573881925000023],[92.90095713000005,23.567380658000047],[92.91310189800004,23.559442776000026],[92.94643648400006,23.55786420100003],[92.96384822400006,23.528178610000055],[92.98877651000004,23.51252707200007],[93.00966994200007,23.513795198000025],[93.01534771500008,23.50423294500007],[93.02534145000004,23.514202886000078],[93.03447858100009,23.51367940500006],[93.04206906100006,23.52374452400005],[93.03754808500008,23.551536627000075],[93.03355059100005,23.553463992000047],[93.03742911200004,23.56193487200005],[93.03167081700008,23.565266118000068],[93.03550174900005,23.575426417000074],[93.02869649100006,23.590369431000056],[93.02779229500004,23.630391965000058],[93.03328885000008,23.646976807000044],[93.02669774400005,23.676505918000032],[93.03468667700008,23.678337859000067],[93.03837484200005,23.68501224700003],[93.05878064300003,23.677764135000075],[93.06211442700004,23.686567403000026],[93.06835231200006,23.686315875000048],[93.07003754700008,23.67960008700004],[93.08783191800006,23.668400217000055],[93.09005914500005,23.69876649100007],[93.09514000200005,23.719014464000054],[93.09975872000007,23.72230554600003],[93.10682342000007,23.712238421000052],[93.09566959000006,23.695144429000038],[93.09464395100008,23.670187202000022],[93.10325504900004,23.654888079000045],[93.12042029100007,23.64083196300004],[93.11607777500006,23.657488190000038],[93.12056305900006,23.670265895000057],[93.11767201400005,23.682496325000045],[93.12755253700004,23.687353857000062],[93.12616720300008,23.714226496000038],[93.13529756800006,23.724623501000053],[93.13920304100009,23.73979679400003],[93.16198337900005,23.747941197000046],[93.16293779600005,23.753197795000062],[93.15094890900008,23.761177028000077],[93.15674128100005,23.770149412000023],[93.18524017900006,23.775283613000056],[93.20126129500005,23.755257135000022],[93.23982472500006,23.74052382700006],[93.25819324600008,23.74285099800005],[93.25082643400003,23.750067769000054],[93.23571209800008,23.751780981000024],[93.22552800500006,23.76388767900005],[93.23291385200008,23.777498195000078],[93.24635304800006,23.786654361000046],[93.24932261500004,23.797942525000053],[93.24490633500005,23.814332252000042],[93.25438610800006,23.83169280000004],[93.25940104900008,23.869252565000068],[93.26625163000006,23.870506573000057],[93.27644646000005,23.842935089000036],[93.30991120000004,23.843353875000048],[93.32335039500003,23.832198962000064],[93.35531192900004,23.83933673100006],[93.35857567400006,23.843588726000064],[93.35235162300006,23.84688804900003],[93.36181736600008,23.851095047000058],[93.35252451300005,23.853184138000074],[93.35884941600006,23.853601956000034],[93.35615122300004,23.857423227000027],[93.36833857900007,23.865123226000037],[93.35510877600007,23.88684294600006],[93.36270401600007,23.895751648000044],[93.36000094700006,23.918670616000043],[93.36472953200007,23.92752918000008],[93.35981832400006,23.932592673000045],[93.36406328300006,23.931621853000024],[93.36487576800005,23.93693140000005],[93.36074306300009,23.94488295600007],[93.35718856600005,23.945239296000068],[93.35569876100004,23.941869456000063],[93.35101344500004,23.941852321000056],[93.35468842000006,23.94341100500003],[93.34879360300005,23.948333551000076],[93.35381052500009,23.95157795800003],[93.35128434200004,23.961379934000036],[93.34107205900006,23.96940763400005],[93.34299750000008,23.974876968000046],[93.33657253600006,23.975785039000073],[93.33939147900008,23.980324454000026],[93.33301871500004,23.97893748000007],[93.33431131800006,23.985017285000026],[93.32870989000008,23.985032569000055],[93.33724925400008,23.989679570000078],[93.32977694600004,24.020720320000066],[93.33891571600003,24.021944250000047],[93.33148309800004,24.030363050000062],[93.32593486500008,24.029889162000075],[93.33737125000005,24.041407407000065],[93.32788899600007,24.042187909000063],[93.31806474400008,24.053180041000076],[93.29377209100005,24.04887949400006],[93.28669863900006,24.052625070000033],[93.28218661200003,24.042981069000064],[93.25312899500005,24.021273364000024],[93.25521547100004,24.027990310000064],[93.25076748800006,24.032979901000033],[93.26308033200007,24.05828344100007],[93.26100617100008,24.070167557000048],[93.25025142300007,24.08023706000006],[93.22032701100005,24.08344868900008],[93.22044359500006,24.061268528000028],[93.20966815800006,24.048218202000044],[93.18741196800005,24.053797333000034],[93.16747543800005,24.051442562000034],[93.16281875100003,24.059880641000063],[93.16586423900009,24.07366176900007],[93.14052089500007,24.087919575000058],[93.12604989600004,24.062180470000044],[93.09937244100007,24.04324880300004],[93.09762977900004,24.073082329000044],[93.08768668500005,24.081408861000057],[93.07841110900006,24.10177455300004],[93.06058377400007,24.09188234100003],[93.04618937100008,24.09009488600003],[93.02686726100006,24.100806548000037],[93.01277203400008,24.101437333000035],[92.99099709600006,24.115562280000063]]]},"properties":{"dtname":"Saitual"}},{"type":"Feature","id":736,"geometry":{"type":"Polygon","coordinates":[[[93.18547119400006,23.77481630400007],[93.15674128100005,23.770149412000023],[93.15094890900008,23.761177028000077],[93.16293779600005,23.753197795000062],[93.16198337900005,23.747941197000046],[93.13920304100009,23.73979679400003],[93.13529756800006,23.724623501000053],[93.12616720300008,23.714226496000038],[93.12755253700004,23.687353857000062],[93.11767201400005,23.682496325000045],[93.12056305900006,23.670265895000057],[93.11607777500006,23.657488190000038],[93.12042029100007,23.64083196300004],[93.10325504900004,23.654888079000045],[93.09464395100008,23.670187202000022],[93.09566959000006,23.695144429000038],[93.10682342000007,23.712238421000052],[93.09975872000007,23.72230554600003],[93.09514000200005,23.719014464000054],[93.09005914500005,23.69876649100007],[93.08783191800006,23.668400217000055],[93.07003754700008,23.67960008700004],[93.06835231200006,23.686315875000048],[93.06211442700004,23.686567403000026],[93.05878064300003,23.677764135000075],[93.03837484200005,23.68501224700003],[93.03468667700008,23.678337859000067],[93.02648359200003,23.676220383000043],[93.03328885000008,23.646976807000044],[93.02779229500004,23.630391965000058],[93.02869649100006,23.590369431000056],[93.03550174900005,23.575426417000074],[93.03167081700008,23.565266118000068],[93.03742911200004,23.56193487200005],[93.03355059100005,23.553463992000047],[93.03754808500008,23.551536627000075],[93.04206906100006,23.52374452400005],[93.03424063500006,23.51351284200007],[93.01741784500007,23.510015034000048],[93.01215923700005,23.50054478000004],[93.02517488800004,23.493787110000028],[93.02888953000007,23.47288435100006],[93.02535603000007,23.453146722000042],[93.03342240300003,23.44365267200004],[93.02617694400004,23.43201710900007],[93.03467161900005,23.412672091000047],[93.03219429900008,23.39713340700007],[93.04915985500008,23.371006924000028],[93.03571590000007,23.347021959000074],[93.03181358400008,23.326582389000066],[93.00525880100008,23.304786526000044],[93.00999392800009,23.27542397900004],[93.03124251400004,23.265668188000063],[93.02764952800004,23.261480336000034],[93.03245603900007,23.253770883000072],[93.04311602400008,23.24884540000005],[93.03474032100007,23.245442770000068],[93.03816674600006,23.237400193000042],[93.05034958600004,23.238732691000052],[93.05130136900004,23.243848531000026],[93.05413292800006,23.241088357000024],[93.05786868100006,23.264882967000062],[93.06336523700008,23.265406447000032],[93.07947418800006,23.250249281000038],[93.07949798200008,23.238756485000067],[93.11931546700004,23.228802314000063],[93.13896071100004,23.214176653000038],[93.14521869400005,23.20189863400003],[93.15480792200003,23.198971897000035],[93.16589517400007,23.20904558600006],[93.15895365400007,23.21825235600005],[93.18365358800008,23.256556321000062],[93.17770081100008,23.269502299000067],[93.19795002500007,23.279698289000066],[93.19283418400005,23.28134011700007],[93.19262307500009,23.287418149000075],[93.20492488700006,23.302694288000055],[93.20058237200004,23.321135110000057],[93.21105200000005,23.329724965000025],[93.20995744800007,23.34943879900004],[93.21469257500007,23.348308556000063],[93.22203321200004,23.35632733800003],[93.21434755400008,23.364417506000052],[93.21844022600004,23.369366785000068],[93.21602507300008,23.372995462000063],[93.22680403200008,23.377314184000056],[93.22632813800004,23.38570178300006],[93.22942143900008,23.383369912000035],[93.23429933300008,23.388616625000054],[93.24629181700004,23.384393080000052],[93.24706514100006,23.389199592000068],[93.26337452000007,23.388577111000075],[93.27133143700007,23.398056884000027],[93.26657251600005,23.40643258600005],[93.27068422400004,23.406851372000062],[93.27532893200004,23.418196642000055],[93.26054478800006,23.44155963000003],[93.26224610200006,23.458810722000067],[93.25955731100004,23.471005458000036],[93.25362055600004,23.47439619100004],[93.25629678900003,23.48439389400005],[93.27150418800005,23.49657673300004],[93.27315394800007,23.528704744000038],[93.27873775000006,23.532152318000044],[93.28070477100005,23.544927381000036],[93.25961745900008,23.574411545000032],[93.27251942500004,23.59116295000007],[93.27050035500008,23.599651152000035],[93.25586648300003,23.60931862700005],[93.24099591700008,23.63225307700003],[93.24497211800008,23.687985498000046],[93.25259829000004,23.70014454300008],[93.23977963900006,23.702284184000064],[93.23813235200004,23.710963435000053],[93.25693658000006,23.731197529000042],[93.24632065400004,23.741111553000053],[93.20107569700008,23.755342796000036],[93.18547119400006,23.77481630400007]]]},"properties":{"dtname":"Khawzawl"}}]}